OBJECT_NAME,OBJECT_ID,EPOCH,MEAN_MOTION,ECCENTRICITY,INCLINATION,RA_OF_ASC_NODE,ARG_OF_PERICENTER,MEAN_ANOMALY,EPHEMERIS_TYPE,CLASSIFICATION_TYPE,NORAD_CAT_ID,ELEMENT_SET_NO,REV_AT_EPOCH,BSTAR,MEAN_MOTION_DOT,MEAN_MOTION_DDOT
SHERPA-LTC2,2022-107BG,2026-07-10T05:43:04.698912,14.69894127,.03927684,53.2365,122.7379,290.8074,65.1253,0,U,53754,999,20593,.15170061E-3,.2762E-4,0
CENTISPACE-1 S3,2022-108A,2026-07-10T19:19:46.236000,14.61280296,.0010642,53.5341,317.5948,54.5365,305.6602,0,U,53757,999,20498,.71576E-4,.166E-5,0
CENTISPACE-1 S4,2022-108B,2026-07-10T20:19:39.076320,14.61968463,.0009887,53.5316,314.8282,44.0258,316.1504,0,U,53758,999,20502,.87904E-4,.253E-5,0
BLUEWALKER-3,2022-111AL,2026-07-09T12:40:14.891232,15.38565703,.00046278,53.2297,289.0667,241.3909,118.6631,0,U,53807,999,21364,.11864694E-3,.4192E-4,0
YUNHAI-1 03,2022-115A,2026-07-10T20:41:32.904096,14.32734154,.0004435,98.5541,189.7095,353.0696,7.0426,0,U,53877,999,19890,.97762E-4,.222E-5,0
CENTISPACE-1 S5,2022-126A,2026-07-10T18:59:40.809984,14.63051258,.0014546,54.9987,118.5003,116.1339,244.1153,0,U,54020,999,20049,.11512E-3,.406E-5,0
CENTISPACE-1 S6,2022-126B,2026-07-10T19:06:52.263936,14.62312277,.0016348,54.9989,120.4561,117.1629,243.1034,0,U,54021,999,20045,.93522E-4,.287E-5,0
OTB-3-GAZELLE,2022-127A,2026-07-10T08:43:14.625408,14.42682860,.00143102,98.3957,182.7160,116.2681,243.9981,0,U,54023,999,19770,.4004663E-4,.9E-6,0
ASO-S,2022-129A,2026-07-10T21:20:24.741600,14.52073491,.0014869,98.2753,196.6307,25.0365,335.1548,0,U,54029,999,19886,.41695E-4,.124E-5,0
HJ-2E,2022-132A,2026-07-10T21:06:59.844384,15.22657955,.0018081,97.3801,195.8345,287.1789,72.7468,0,U,54035,999,20802,.22413E-3,.5169E-4,0
COSMOS 2561,2022-137A,2026-07-10T21:20:24.988704,15.52299687,.0008203,96.9179,250.0099,300.4447,59.5996,0,U,54109,999,21002,.15569E-3,.9388E-4,0
GONETS-M 23,2022-139A,2026-07-10T20:21:39.802176,12.42891842,.0021962,82.5091,333.5891,167.7318,192.4301,0,U,54150,999,16858,.21222E-3,.39E-6,0
GONETS-M 24,2022-139B,2026-07-10T19:42:52.625088,12.42892421,.0017014,82.5008,332.6495,177.3955,182.7216,0,U,54151,999,16858,.14062E-3,.29E-6,0
GONETS-M 25,2022-139C,2026-07-10T19:23:19.805568,12.42890808,.0020956,82.5073,333.3570,176.4620,183.6611,0,U,54152,999,16858,.16082E-3,.32E-6,0
SKIF-D,2022-139D,2026-07-10T05:46:42.558240,5.00429285,.0007422,89.9493,96.6615,189.4801,170.5705,0,U,54153,999,6526,0,0,0
MATS,2022-147A,2026-07-10T10:41:54.667968,15.05488341,.00141846,97.6824,192.9436,117.4397,242.8274,0,U,54227,999,20126,.83866313E-4,.1145E-4,0
EOS-6 (OCEANSAT-3),2022-158A,2026-07-10T21:08:25.711296,14.46982916,.0000246,98.3549,289.7615,109.7789,250.3430,0,U,54361,999,19126,.46809E-4,.127E-5,0
DONGPO 09,2022-167D,2026-07-10T20:28:53.895648,15.36869390,.000307,97.6912,3.9283,62.2011,297.9544,0,U,54685,999,19908,.21061E-3,.7504E-4,0
DONGPO 08,2022-167E,2026-07-10T21:01:04.379232,15.34128463,.0009361,97.6875,1.0166,86.9586,273.2727,0,U,54686,999,19895,.22053E-3,.7208E-4,0
DONGPO 10,2022-167H,2026-07-10T20:52:34.815360,15.34943053,.0005316,97.6957,3.0180,41.9056,318.2592,0,U,54689,999,19899,.19709E-3,.6596E-4,0
JILIN-1 GAOFEN 03D48,2022-167P,2026-07-10T20:32:00.897216,15.35732375,.0006803,97.6892,2.3895,44.1940,315.9845,0,U,54695,999,19902,.20447E-3,.7024E-4,0
STAR VIBE,2023-001A,2026-07-10T20:12:20.270592,15.43274335,.0005934,97.3163,256.4097,45.0394,315.1335,0,U,55009,999,19587,.22732E-3,.10031E-3,0
BRO-8,2023-001C,2026-07-10T19:24:50.749344,15.50558471,.0005364,97.3196,257.3555,55.1935,304.9820,0,U,55011,999,19586,.41848E-3,.23874E-3,0
CONNECTA T1.2,2023-001D,2026-07-09T14:44:08.485440,15.52554531,.00044362,97.3245,261.7273,29.3220,330.8281,0,U,55012,999,19602,.54725678E-3,.33588E-3,0
BIRKELAND,2023-001G,2026-07-10T20:36:47.666592,15.40489560,.0006894,97.3340,259.8939,35.5323,324.6381,0,U,55015,999,19599,.15496E-3,.6201E-4,0
ION SCV-008,2023-001AU,2026-07-10T08:15:31.212864,15.28844427,.00132243,97.5712,288.0538,292.3719,67.6118,0,U,55051,999,19487,.15440114E-3,.4258E-4,0
ION SCV-007,2023-001BD,2026-07-10T03:43:17.534784,14.77573553,.00109197,97.8995,253.7133,260.4754,99.5223,0,U,55060,999,18964,.39813732E-4,.234E-5,0
HUYGENS,2023-001CN,2026-07-10T20:36:54.931968,15.40488417,.0008916,97.3244,259.0929,9.2358,350.9051,0,U,55093,999,19601,.14556E-3,.5823E-4,0
SHARJAHSAT-1,2023-001CZ,2026-07-10T19:30:42.530400,15.50003927,.0005255,97.3161,260.9197,35.4818,324.6782,0,U,55104,999,19615,.25862E-3,.14414E-3,0
