SHERPA-LTC2             
1 53754U 22107BG  26191.23824883  .00002762  00000+0  15170-3 0  9996
2 53754  53.2365 122.7379 0392768 290.8074  65.1253 14.69894127205938
CENTISPACE-1 S3         
1 53757U 22108A   26191.80539625  .00000166  00000+0  71576-4 0  9999
2 53757  53.5341 317.5948 0010642  54.5365 305.6602 14.61280296204982
CENTISPACE-1 S4         
1 53758U 22108B   26191.84698005  .00000253  00000+0  87904-4 0  9991
2 53758  53.5316 314.8282 0009887  44.0258 316.1504 14.61968463205023
BLUEWALKER-3            
1 53807U 22111AL  26190.52795013  .00004192  00000+0  11865-3 0  9999
2 53807  53.2297 289.0667 0004627 241.3909 118.6631 15.38565703213643
YUNHAI-1 03             
1 53877U 22115A   26191.86218639  .00000222  00000+0  97762-4 0  9993
2 53877  98.5541 189.7095 0004435 353.0696   7.0426 14.32734154198901
CENTISPACE-1 S5         
1 54020U 22126A   26191.79144456  .00000406  00000+0  11512-3 0  9995
2 54020  54.9987 118.5003 0014546 116.1339 244.1153 14.63051258200497
CENTISPACE-1 S6         
1 54021U 22126B   26191.79643824  .00000287  00000+0  93522-4 0  9998
2 54021  54.9989 120.4561 0016348 117.1629 243.1034 14.62312277200459
OTB-3-GAZELLE           
1 54023U 22127A   26191.36336372  .00000090  00000+0  40047-4 0  9997
2 54023  98.3957 182.7160 0014310 116.2681 243.9981 14.42682860197707
ASO-S                   
1 54029U 22129A   26191.88917525  .00000124  00000+0  41695-4 0  9995
2 54029  98.2753 196.6307 0014869  25.0365 335.1548 14.52073491198864
HJ-2E                   
1 54035U 22132A   26191.87985931  .00005169  00000+0  22413-3 0  9991
2 54035  97.3801 195.8345 0018081 287.1789  72.7468 15.22657955208025
COSMOS 2561             
1 54109U 22137A   26191.88917811  .00009388  00000+0  15569-3 0  9992
2 54109  96.9179 250.0099 0008203 300.4447  59.5996 15.52299687210024
GONETS-M 23             
1 54150U 22139A   26191.84837734  .00000039  00000+0  21222-3 0  9998
2 54150  82.5091 333.5891 0021962 167.7318 192.4301 12.42891842168586
GONETS-M 24             
1 54151U 22139B   26191.82144242  .00000029  00000+0  14062-3 0  9995
2 54151  82.5008 332.6495 0017014 177.3955 182.7216 12.42892421168583
GONETS-M 25             
1 54152U 22139C   26191.80786812  .00000032  00000+0  16082-3 0  9997
2 54152  82.5073 333.3570 0020956 176.4620 183.6611 12.42890808168582
SKIF-D                  
1 54153U 22139D   26191.24077035  .00000000  00000+0  00000+0 0  9990
2 54153  89.9493  96.6615 0007422 189.4801 170.5705  5.00429285 65260
MATS                    
1 54227U 22147A   26191.44577162  .00001145  00000+0  83866-4 0  9996
2 54227  97.6824 192.9436 0014184 117.4397 242.8274 15.05488341201261
EOS-6 (OCEANSAT-3)      
1 54361U 22158A   26191.88085314  .00000127  00000+0  46809-4 0  9993
2 54361  98.3549 289.7615 0000246 109.7789 250.3430 14.46982916191266
DONGPO 09               
1 54685U 22167D   26191.85340157  .00007504  00000+0  21061-3 0  9996
2 54685  97.6912   3.9283 0003070  62.2011 297.9544 15.36869390199088
DONGPO 08               
1 54686U 22167E   26191.87574513  .00007208  00000+0  22053-3 0  9997
2 54686  97.6875   1.0166 0009361  86.9586 273.2727 15.34128463198957
DONGPO 10               
1 54689U 22167H   26191.86984740  .00006596  00000+0  19709-3 0  9999
2 54689  97.6957   3.0180 0005316  41.9056 318.2592 15.34943053198992
JILIN-1 GAOFEN 03D48    
1 54695U 22167P   26191.85556594  .00007024  00000+0  20447-3 0  9995
2 54695  97.6892   2.3895 0006803  44.1940 315.9845 15.35732375199025
STAR VIBE               
1 55009U 23001A   26191.84190128  .00010031  00000+0  22732-3 0  9990
2 55009  97.3163 256.4097 0005934  45.0394 315.1335 15.43274335195877
BRO-8                   
1 55011U 23001C   26191.80892071  .00023874  00000+0  41848-3 0  9993
2 55011  97.3196 257.3555 0005364  55.1935 304.9820 15.50558471195863
CONNECTA T1.2           
1 55012U 23001D   26190.61398710  .00033588  00000+0  54726-3 0  9995
2 55012  97.3245 261.7273 0004436  29.3220 330.8281 15.52554531196027
BIRKELAND               
1 55015U 23001G   26191.85888503  .00006201  00000+0  15496-3 0  9992
2 55015  97.3340 259.8939 0006894  35.5323 324.6381 15.40489560195999
ION SCV-008             
1 55051U 23001AU  26191.34411126  .00004258  00000+0  15440-3 0  9998
2 55051  97.5712 288.0538 0013224 292.3719  67.6118 15.28844427194871
ION SCV-007             
1 55060U 23001BD  26191.15506406  .00000234  00000+0  39814-4 0  9995
2 55060  97.8995 253.7133 0010919 260.4754  99.5223 14.77573553189642
HUYGENS                 
1 55093U 23001CN  26191.85896912  .00005823  00000+0  14556-3 0  9996
2 55093  97.3244 259.0929 0008916   9.2358 350.9051 15.40488417196012
SHARJAHSAT-1            
1 55104U 23001CZ  26191.81299225  .00014414  00000+0  25862-3 0  9997
2 55104  97.3161 260.9197 0005255  35.4818 324.6782 15.50003927196150
